XRISM                   
1 57800U 23137A   23364.15059276  .00004749  00000+0  37519-3 0  9990
2 57800  31.0053  13.1060 0009886 322.7800  37.2149 14.99081816 17133
